{
  "type": "FeatureCollection",
  "features": [
    {
      "type": "Feature",
      "properties": {
        "norad_id": 36036,
        "name": "SMOS",
        "group": "resource",
        "lat": 78.37572033507801,
        "lon": 28.12765215409877,
        "alt_km": 751.1992798176661,
        "timestamp": "2025-12-02T17:49:11.682419+00:00",
        "meta_object_name": "SMOS",
        "meta_object_id": "2009-059A",
        "meta_epoch": "2025-12-02T12:21:46.291104",
        "meta_mean_motion": 14.39787385,
        "meta_eccentricity": 0.0001047,
        "meta_inclination": 98.4384,
        "meta_ra_of_asc_node": 161.7144,
        "meta_arg_of_pericenter": 71.9431,
        "meta_mean_anomaly": 288.1871,
        "meta_ephemeris_type": 0,
        "meta_classification_type": "U",
        "meta_norad_cat_id": 36036,
        "meta_element_set_no": 999,
        "meta_rev_at_epoch": 84515,
        "meta_bstar": 0.00019195,
        "meta_mean_motion_dot": 5.58e-06,
        "meta_mean_motion_ddot": 0,
        "tle_line1": "1 36036U 09059A   25336.51511911  .00000558  00000+0  19195-3 0  9999",
        "tle_line2": "2 36036  98.4384 161.7144 0001047  71.9431 288.1871 14.39787385845150"
      },
      "geometry": {
        "type": "Point",
        "coordinates": [
          28.12765215409877,
          78.37572033507801
        ]
      }
    },
    {
      "type": "Feature",
      "properties": {
        "norad_id": 36110,
        "name": "YAOGAN-7",
        "group": "resource",
        "lat": -1.375505784831021,
        "lon": -141.27106640244946,
        "alt_km": 627.6332642891384,
        "timestamp": "2025-12-02T17:49:11.682433+00:00",
        "meta_object_name": "YAOGAN-7",
        "meta_object_id": "2009-069A",
        "meta_epoch": "2025-12-02T06:27:01.181088",
        "meta_mean_motion": 14.7770645,
        "meta_eccentricity": 0.0023847,
        "meta_inclination": 98.0304,
        "meta_ra_of_asc_node": 218.0628,
        "meta_arg_of_pericenter": 316.626,
        "meta_mean_anomaly": 43.3073,
        "meta_ephemeris_type": 0,
        "meta_classification_type": "U",
        "meta_norad_cat_id": 36110,
        "meta_element_set_no": 999,
        "meta_rev_at_epoch": 86054,
        "meta_bstar": 0.00014376,
        "meta_mean_motion_dot": 9.81e-06,
        "meta_mean_motion_ddot": 0,
        "tle_line1": "1 36110U 09069A   25336.26876367  .00000981  00000+0  14376-3 0  9990",
        "tle_line2": "2 36110  98.0304 218.0628 0023847 316.6260  43.3073 14.77706450860546"
      },
      "geometry": {
        "type": "Point",
        "coordinates": [
          -141.27106640244946,
          -1.375505784831021
        ]
      }
    },
    {
      "type": "Feature",
      "properties": {
        "norad_id": 36605,
        "name": "TANDEM-X",
        "group": "resource",
        "lat": -15.794836572348595,
        "lon": 160.14883508225128,
        "alt_km": 513.6037306347926,
        "timestamp": "2025-12-02T17:49:11.682444+00:00",
        "meta_object_name": "TANDEM-X",
        "meta_object_id": "2010-030A",
        "meta_epoch": "2025-12-01T15:40:02.616384",
        "meta_mean_motion": 15.19150166,
        "meta_eccentricity": 0.0001799,
        "meta_inclination": 97.4445,
        "meta_ra_of_asc_node": 341.1948,
        "meta_arg_of_pericenter": 94.6739,
        "meta_mean_anomaly": 265.4701,
        "meta_ephemeris_type": 0,
        "meta_classification_type": "U",
        "meta_norad_cat_id": 36605,
        "meta_element_set_no": 999,
        "meta_rev_at_epoch": 85665,
        "meta_bstar": 8.3295316e-05,
        "meta_mean_motion_dot": 1.682e-05,
        "meta_mean_motion_ddot": 0,
        "tle_line1": "1 36605U 10030A   25335.65280806  .00001682  00000+0  83295-4 0  9994",
        "tle_line2": "2 36605  97.4445 341.1948 0001799  94.6739 265.4701 15.19150166856659"
      },
      "geometry": {
        "type": "Point",
        "coordinates": [
          160.14883508225128,
          -15.794836572348595
        ]
      }
    },
    {
      "type": "Feature",
      "properties": {
        "norad_id": 36795,
        "name": "CARTOSAT-2B",
        "group": "resource",
        "lat": -67.33124779341598,
        "lon": -173.02776910885592,
        "alt_km": 647.569859408366,
        "timestamp": "2025-12-02T17:49:11.682454+00:00",
        "meta_object_name": "CARTOSAT-2B",
        "meta_object_id": "2010-035A",
        "meta_epoch": "2025-12-02T11:49:41.403648",
        "meta_mean_motion": 14.78762532,
        "meta_eccentricity": 0.0012861,
        "meta_inclination": 97.7867,
        "meta_ra_of_asc_node": 25.8553,
        "meta_arg_of_pericenter": 107.6532,
        "meta_mean_anomaly": 252.6085,
        "meta_ephemeris_type": 0,
        "meta_classification_type": "U",
        "meta_norad_cat_id": 36795,
        "meta_element_set_no": 999,
        "meta_rev_at_epoch": 83078,
        "meta_bstar": 0.00015557,
        "meta_mean_motion_dot": 1.094e-05,
        "meta_mean_motion_ddot": 0,
        "tle_line1": "1 36795U 10035A   25336.49284032  .00001094  00000+0  15557-3 0  9999",
        "tle_line2": "2 36795  97.7867  25.8553 0012861 107.6532 252.6085 14.78762532830785"
      },
      "geometry": {
        "type": "Point",
        "coordinates": [
          -173.02776910885592,
          -67.33124779341598
        ]
      }
    },
    {
      "type": "Feature",
      "properties": {
        "norad_id": 36834,
        "name": "YAOGAN-10",
        "group": "resource",
        "lat": 59.20255311830535,
        "lon": -169.86414036865915,
        "alt_km": 608.4291078820324,
        "timestamp": "2025-12-02T17:49:11.682465+00:00",
        "meta_object_name": "YAOGAN-10",
        "meta_object_id": "2010-038A",
        "meta_epoch": "2025-12-02T13:06:30.027168",
        "meta_mean_motion": 14.84546854,
        "meta_eccentricity": 0.000151,
        "meta_inclination": 97.9151,
        "meta_ra_of_asc_node": 356.4433,
        "meta_arg_of_pericenter": 84.8505,
        "meta_mean_anomaly": 66.4021,
        "meta_ephemeris_type": 0,
        "meta_classification_type": "U",
        "meta_norad_cat_id": 36834,
        "meta_element_set_no": 999,
        "meta_rev_at_epoch": 82802,
        "meta_bstar": 0.00015299,
        "meta_mean_motion_dot": 1.237e-05,
        "meta_mean_motion_ddot": 0,
        "tle_line1": "1 36834U 10038A   25336.54618087  .00001237  00000+0  15299-3 0  9995",
        "tle_line2": "2 36834  97.9151 356.4433 0001510  84.8505  66.4021 14.84546854828021"
      },
      "geometry": {
        "type": "Point",
        "coordinates": [
          -169.86414036865915,
          59.20255311830535
        ]
      }
    },
    {
      "type": "Feature",
      "properties": {
        "norad_id": 37216,
        "name": "COSMO-SKYMED 4",
        "group": "resource",
        "lat": 49.34375731947163,
        "lon": -12.50242954423003,
        "alt_km": 617.31287872345,
        "timestamp": "2025-12-02T17:49:11.682475+00:00",
        "meta_object_name": "COSMO-SKYMED 4",
        "meta_object_id": "2010-060A",
        "meta_epoch": "2025-12-02T12:22:30.127872",
        "meta_mean_motion": 14.8216628,
        "meta_eccentricity": 0.0001482,
        "meta_inclination": 97.8807,
        "meta_ra_of_asc_node": 157.9928,
        "meta_arg_of_pericenter": 84.8113,
        "meta_mean_anomaly": 275.3269,
        "meta_ephemeris_type": 0,
        "meta_classification_type": "U",
        "meta_norad_cat_id": 37216,
        "meta_element_set_no": 999,
        "meta_rev_at_epoch": 81543,
        "meta_bstar": 0.00010923,
        "meta_mean_motion_dot": 8.18e-06,
        "meta_mean_motion_ddot": 0,
        "tle_line1": "1 37216U 10060A   25336.51562648  .00000818  00000+0  10923-3 0  9996",
        "tle_line2": "2 37216  97.8807 157.9928 0001482  84.8113 275.3269 14.82166280815434"
      },
      "geometry": {
        "type": "Point",
        "coordinates": [
          -12.50242954423003,
          49.34375731947163
        ]
      }
    },
    {
      "type": "Feature",
      "properties": {
        "norad_id": 37387,
        "name": "RESOURCESAT-2",
        "group": "resource",
        "lat": 67.36277087953746,
        "lon": -117.88456825513968,
        "alt_km": 809.7853576169646,
        "timestamp": "2025-12-02T17:49:11.682486+00:00",
        "meta_object_name": "RESOURCESAT-2",
        "meta_object_id": "2011-015A",
        "meta_epoch": "2025-12-02T10:32:37.908960",
        "meta_mean_motion": 14.21590442,
        "meta_eccentricity": 0.0006813,
        "meta_inclination": 98.7891,
        "meta_ra_of_asc_node": 40.0368,
        "meta_arg_of_pericenter": 68.9757,
        "meta_mean_anomaly": 291.2148,
        "meta_ephemeris_type": 0,
        "meta_classification_type": "U",
        "meta_norad_cat_id": 37387,
        "meta_element_set_no": 999,
        "meta_rev_at_epoch": 75822,
        "meta_bstar": 0.00011987,
        "meta_mean_motion_dot": 2.18e-06,
        "meta_mean_motion_ddot": 0,
        "tle_line1": "1 37387U 11015A   25336.43932765  .00000218  00000+0  11987-3 0  9993",
        "tle_line2": "2 37387  98.7891  40.0368 0006813  68.9757 291.2148 14.21590442758226"
      },
      "geometry": {
        "type": "Point",
        "coordinates": [
          -117.88456825513968,
          67.36277087953746
        ]
      }
    }
  ]
}